[{"OBJECT_NAME":"SENTINEL-2B","OBJECT_ID":"2017-013A","EPOCH":"2026-03-09T23:26:28.535424","MEAN_MOTION":14.30819717,"ECCENTRICITY":0.00011315,"INCLINATION":98.565,"RA_OF_ASC_NODE":145.1663,"ARG_OF_PERICENTER":94.2934,"MEAN_ANOMALY":265.8378,"EPHEMERIS_TYPE":0,"CLASSIFICATION_TYPE":"U","NORAD_CAT_ID":42063,"ELEMENT_SET_NO":999,"REV_AT_EPOCH":47045,"BSTAR":3.8552046e-5,"MEAN_MOTION_DOT":5.7e-7,"MEAN_MOTION_DDOT":0},{"OBJECT_NAME":"IDEFIX & ARIANE 42P R\/B","OBJECT_ID":"2002-021B","EPOCH":"2026-03-09T18:36:46.968768","MEAN_MOTION":14.31026352,"ECCENTRICITY":0.00115761,"INCLINATION":98.5868,"RA_OF_ASC_NODE":7.3808,"ARG_OF_PERICENTER":182.0346,"MEAN_ANOMALY":178.0792,"EPHEMERIS_TYPE":0,"CLASSIFICATION_TYPE":"U","NORAD_CAT_ID":27422,"ELEMENT_SET_NO":999,"REV_AT_EPOCH":24403,"BSTAR":0.00016191613,"MEAN_MOTION_DOT":3.83e-6,"MEAN_MOTION_DDOT":0}]
